<q:quakeml xmlns="http://quakeml.org/xmlns/bed/1.2" xmlns:catalog="http://anss.org/xmlns/catalog/0.1" xmlns:q="http://quakeml.org/xmlns/quakeml/1.2"><eventParameters publicID="quakeml:US.anss.org/eventParameters/pde20100314080803960_32/1351636909701"><event catalog:eventid="20100314080803960_32" catalog:eventsource="pde" catalog:dataid="pde20100314080803960_32" catalog:datasource="US" publicID="quakeml:US.anss.org/event/pde20100314080803960_32"><description><text>228</text><type>Flinn-Engdahl region</type></description><comment><text>no people dead or missing; no people injured; no buildings damaged or destroyed</text></comment><comment><text>MW 6.5 (UCMT), 6.5 (GCMT), 6.4 (GS), 6.5 (WCMT), 6.5 (NIED). ME 6.5 (GS). Felt (IV) at Kitakami and Sendai; (III) at Ayase, Misawa, Tokyo, Yokohama and Yokosuka; (II) at Hamura. Widely felt on Honshu. Recorded (5L JMA) in Fukushima; (4 JMA) in Iwate, Miyagi and Tochigi; (3 JMA) in Akita, Aomori, Chiba, Gumma, Ibaraki, Kanagawa, Niigata, Saitama, Tokyo, Yamagata and Yamanashi; (2 JMA) in Nagano and Shizuoka; (1 JMA) in Aichi, Gifu, Ishikawa and Shiga. Also recorded (2 JMA) in southern and southwestern Hokkaido and (1 JMA) in central and eastern Hokkaido. Recorded (1 JMA) on Hachijo-jima, Miyake-jima, O-shima and Sadoga-shima.</text></comment><focalMechanism catalog:dataid="pde20100314080803960_32_B_GS" catalog:datasource="us" publicID="quakeml:us.anss.org/focalMechanism/pde20100314080803960_32/B/GS"><comment><text>Depth from synthetics of broadband displacement seismograms.</text></comment><momentTensor publicID="quakeml:us.anss.org/momentTensor/pde20100314080803960_32/B/GS"><derivedOriginID>quakeml:us.anss.org/origin/pde20100314080803960_32/bb</derivedOriginID><scalarMoment><value>140000000000000</value><uncertainty>20000000000000</uncertainty></scalarMoment><sourceTimeFunction><type>unknown</type><duration>10.0</duration></sourceTimeFunction></momentTensor><nodalPlanes><nodalPlane1><strike><value>25</value></strike><dip><value>80</value></dip><rake><value>90</value></rake></nodalPlane1><nodalPlane2><strike><value>205</value></strike><dip><value>10</value></dip><rake><value>90</value></rake></nodalPlane2></nodalPlanes></focalMechanism><focalMechanism catalog:dataid="pde20100314080803960_32_C_UCMT" catalog:datasource="us" publicID="quakeml:us.anss.org/focalMechanism/pde20100314080803960_32/C/UCMT"><momentTensor publicID="quakeml:us.anss.org/momentTensor/pde20100314080803960_32/C/UCMT"><dataUsed><waveType>P waves</waveType><stationCount>152</stationCount></dataUsed><derivedOriginID>quakeml:US.anss.org/origin/pde20100314080803960_32/cmt/UCMT</derivedOriginID><scalarMoment><value>7900000000000000000</value></scalarMoment><tensor><Mrr><value>5480000000000000000</value></Mrr><Mtt><value>-870000000000000000</value></Mtt><Mpp><value>-4610000000000000000</value></Mpp><Mrt><value>2060000000000000000</value></Mrt><Mrp><value>5600000000000000000</value></Mrp><Mtp><value>-1290000000000000000</value></Mtp></tensor></momentTensor><nodalPlanes><nodalPlane1><strike><value>19</value></strike><dip><value>69</value></dip><rake><value>91</value></rake></nodalPlane1><nodalPlane2><strike><value>196</value></strike><dip><value>21</value></dip><rake><value>87</value></rake></nodalPlane2></nodalPlanes><principalAxes><tAxis><azimuth><value>291</value></azimuth><plunge><value>65</value></plunge><length><value>8180000000000000000</value></length></tAxis><pAxis><azimuth><value>108</value></azimuth><plunge><value>24</value></plunge><length><value>-7710000000000000000</value></length></pAxis><nAxis><azimuth><value>198</value></azimuth><plunge><value>1</value></plunge><length><value>-480000000000000000</value></length></nAxis></principalAxes><creationInfo><agencyID>UCMT</agencyID></creationInfo></focalMechanism><focalMechanism catalog:dataid="pde20100314080803960_32_C_WCMT" catalog:datasource="us" publicID="quakeml:us.anss.org/focalMechanism/pde20100314080803960_32/C/WCMT"><momentTensor publicID="quakeml:us.anss.org/momentTensor/pde20100314080803960_32/C/WCMT"><dataUsed><waveType>P waves</waveType><stationCount>35</stationCount></dataUsed><derivedOriginID>quakeml:US.anss.org/origin/pde20100314080803960_32/cmt/WCMT</derivedOriginID><scalarMoment><value>6500000000000000000</value></scalarMoment><tensor><Mrr><value>43000000000000000</value></Mrr><Mtt><value>-400000000000000</value></Mtt><Mpp><value>-42600000000000000</value></Mpp><Mrt><value>18700000000000000</value></Mrt><Mrp><value>43400000000000000</value></Mrp><Mtp><value>-15500000000000000</value></Mtp></tensor></momentTensor><nodalPlanes><nodalPlane1><strike><value>193</value></strike><dip><value>22</value></dip><rake><value>82</value></rake></nodalPlane1><nodalPlane2><strike><value>22</value></strike><dip><value>68</value></dip><rake><value>93</value></rake></nodalPlane2></nodalPlanes><principalAxes><tAxis><azimuth><value>297</value></azimuth><plunge><value>66</value></plunge><length><value>63300000000000000</value></length></tAxis><pAxis><azimuth><value>109</value></azimuth><plunge><value>23</value></plunge><length><value>-67700000000000000</value></length></pAxis><nAxis><azimuth><value>200</value></azimuth><plunge><value>3</value></plunge><length><value>4500000000000000</value></length></nAxis></principalAxes><creationInfo><agencyID>WCMT</agencyID></creationInfo></focalMechanism><focalMechanism catalog:dataid="pde20100314080803960_32_M_GS" catalog:datasource="us" publicID="quakeml:us.anss.org/focalMechanism/pde20100314080803960_32/M/GS"><momentTensor publicID="quakeml:us.anss.org/momentTensor/pde20100314080803960_32/M/GS"><scalarMoment><value>5300000000000000000</value></scalarMoment><tensor><Mrr><value>3330000000000000000</value></Mrr><Mtt><value>400000000000000000</value></Mtt><Mpp><value>-3730000000000000000</value></Mpp><Mrt><value>1750000000000000000</value></Mrt><Mrp><value>3560000000000000000</value></Mrp><Mtp><value>280000000000000000</value></Mtp></tensor></momentTensor><nodalPlanes><nodalPlane1><strike><value>18</value></strike><dip><value>70</value></dip><rake><value>107</value></rake></nodalPlane1><nodalPlane2><strike><value>156</value></strike><dip><value>26</value></dip><rake><value>51</value></rake></nodalPlane2></nodalPlanes><principalAxes><tAxis><azimuth><value>312</value></azimuth><plunge><value>61</value></plunge><length><value>5410000000000000000</value></length></tAxis><pAxis><azimuth><value>94</value></azimuth><plunge><value>23</value></plunge><length><value>-5250000000000000000</value></length></pAxis><nAxis><azimuth><value>191</value></azimuth><plunge><value>15</value></plunge><length><value>-160000000000000000</value></length></nAxis></principalAxes></focalMechanism><focalMechanism catalog:dataid="pde20100314080803960_32_C_GCMT" catalog:datasource="us" publicID="quakeml:us.anss.org/focalMechanism/pde20100314080803960_32/C/GCMT"><comment><text>Data Used: II IU CU CN IC G. LP body wave period 50 sec. Mantle waves from 119 sta. Surface waves: sta=136, comp=350, per= 50.</text></comment><momentTensor publicID="quakeml:us.anss.org/momentTensor/pde20100314080803960_32/C/GCMT"><dataUsed><waveType>P waves</waveType><stationCount>132</stationCount><componentCount>346</componentCount></dataUsed><dataUsed><waveType>mantle waves</waveType><stationCount>99</stationCount><componentCount>211</componentCount></dataUsed><derivedOriginID>quakeml:US.anss.org/origin/pde20100314080803960_32/cmt/GCMT</derivedOriginID><scalarMoment><value>7800000000000000000</value></scalarMoment><tensor><Mrr><value>5550000000000000000</value><uncertainty>30000000000000000</uncertainty></Mrr><Mtt><value>-280000000000000000</value><uncertainty>30000000000000000</uncertainty></Mtt><Mpp><value>-5270000000000000000</value><uncertainty>30000000000000000</uncertainty></Mpp><Mrt><value>1830000000000000000</value><uncertainty>30000000000000000</uncertainty></Mrt><Mrp><value>4970000000000000000</value><uncertainty>40000000000000000</uncertainty></Mrp><Mtp><value>-2070000000000000000</value><uncertainty>20000000000000000</uncertainty></Mtp></tensor><sourceTimeFunction><type>unknown</type><duration>9.0</duration></sourceTimeFunction></momentTensor><nodalPlanes><nodalPlane1><strike><value>200</value></strike><dip><value>24</value></dip><rake><value>89</value></rake></nodalPlane1><nodalPlane2><strike><value>20</value></strike><dip><value>66</value></dip><rake><value>90</value></rake></nodalPlane2></nodalPlanes><principalAxes><tAxis><azimuth><value>291</value></azimuth><plunge><value>69</value></plunge><length><value>7610000000000000000</value></length></tAxis><pAxis><azimuth><value>110</value></azimuth><plunge><value>21</value></plunge><length><value>-8080000000000000000</value></length></pAxis><nAxis><azimuth><value>200</value></azimuth><plunge><value>0</value></plunge><length><value>470000000000000000</value></length></nAxis></principalAxes><creationInfo><agencyID>GCMT</agencyID></creationInfo></focalMechanism><focalMechanism catalog:dataid="pde20100314080803960_32_M_NIED" catalog:datasource="us" publicID="quakeml:us.anss.org/focalMechanism/pde20100314080803960_32/M/NIED"><momentTensor publicID="quakeml:us.anss.org/momentTensor/pde20100314080803960_32/M/NIED"><scalarMoment><value>6800000000000000000</value></scalarMoment><tensor><Mrr><value>4430000000000000000</value></Mrr><Mtt><value>-270000000000000000</value></Mtt><Mpp><value>-4160000000000000000</value></Mpp><Mrt><value>1760000000000000000</value></Mrt><Mrp><value>4760000000000000000</value></Mrp><Mtp><value>-1560000000000000000</value></Mtp></tensor></momentTensor><nodalPlanes><nodalPlane1><strike><value>20</value></strike><dip><value>69</value></dip><rake><value>91</value></rake></nodalPlane1><nodalPlane2><strike><value>199</value></strike><dip><value>21</value></dip><rake><value>89</value></rake></nodalPlane2></nodalPlanes><creationInfo><agencyID>NIED</agencyID></creationInfo></focalMechanism><focalMechanism catalog:dataid="pde20100314080803960_32_S_PPT" catalog:datasource="us" publicID="quakeml:us.anss.org/focalMechanism/pde20100314080803960_32/S/PPT"><momentTensor publicID="quakeml:us.anss.org/momentTensor/pde20100314080803960_32/S/PPT"><scalarMoment><value>8700000000000000000</value></scalarMoment></momentTensor><creationInfo><agencyID>PPT</agencyID></creationInfo></focalMechanism><amplitude publicID="quakeml:us.anss.org/amplitude/pde20100314080803960_32/YHNB/surface_z"><genericAmplitude><value>0.00003348</value></genericAmplitude><category>period</category><unit>m</unit><period><value>22.0</value></period><pickID>quakeml:us.anss.org/pick/pde20100314080803960_32/YHNB/P</pickID><waveformID stationCode="YHNB" networkCode="IR"/></amplitude><amplitude publicID="quakeml:us.anss.org/amplitude/pde20100314080803960_32/TATO/surface_z"><genericAmplitude><value>0.00004715</value></genericAmplitude><category>period</category><unit>m</unit><period><value>22.0</value></period><pickID>quakeml:us.anss.org/pick/pde20100314080803960_32/TATO/P</pickID><waveformID stationCode="TATO" networkCode="IR"/></amplitude><amplitude publicID="quakeml:us.anss.org/amplitude/pde20100314080803960_32/GUMO/surface_z"><genericAmplitude><value>0.00003394</value></genericAmplitude><category>period</category><unit>m</unit><period><value>20.0</value></period><pickID>quakeml:us.anss.org/pick/pde20100314080803960_32/GUMO/P</pickID><waveformID stationCode="GUMO" networkCode="IR"/></amplitude><amplitude publicID="quakeml:us.anss.org/amplitude/pde20100314080803960_32/YAK/surface_z"><genericAmplitude><value>0.00012259</value></genericAmplitude><category>period</category><unit>m</unit><period><value>19.0</value></period><pickID>quakeml:us.anss.org/pick/pde20100314080803960_32/YAK/P</pickID><waveformID stationCode="YAK" networkCode="IR"/></amplitude><amplitude publicID="quakeml:us.anss.org/amplitude/pde20100314080803960_32/ULN/surface_z"><genericAmplitude><value>0.00010644</value></genericAmplitude><category>period</category><unit>m</unit><period><value>19.0</value></period><pickID>quakeml:us.anss.org/pick/pde20100314080803960_32/ULN/P</pickID><waveformID stationCode="ULN" networkCode="IR"/></amplitude><amplitude publicID="quakeml:us.anss.org/amplitude/pde20100314080803960_32/ENH/surface_z"><genericAmplitude><value>0.00006972</value></genericAmplitude><category>period</category><unit>m</unit><period><value>21.0</value></period><pickID>quakeml:us.anss.org/pick/pde20100314080803960_32/ENH/P</pickID><waveformID stationCode="ENH" networkCode="IR"/></amplitude><amplitude publicID="quakeml:us.anss.org/amplitude/pde20100314080803960_32/TLY/surface_z"><genericAmplitude><value>0.00017066</value></genericAmplitude><category>period</category><unit>m</unit><period><value>19.0</value></period><pickID>quakeml:us.anss.org/pick/pde20100314080803960_32/TLY/P</pickID><waveformID stationCode="TLY" networkCode="IR"/></amplitude><amplitude publicID="quakeml:us.anss.org/amplitude/pde20100314080803960_32/ADK/surface_z"><genericAmplitude><value>0.00006354</value></genericAmplitude><category>period</category><unit>m</unit><period><value>22.0</value></period><pickID>quakeml:us.anss.org/pick/pde20100314080803960_32/ADK/P</pickID><waveformID stationCode="ADK" networkCode="IR"/></amplitude><amplitude publicID="quakeml:us.anss.org/amplitude/pde20100314080803960_32/BILL/surface_z"><genericAmplitude><value>0.00003166</value></genericAmplitude><category>period</category><unit>m</unit><period><value>20.0</value></period><pickID>quakeml:us.anss.org/pick/pde20100314080803960_32/BILL/P</pickID><waveformID stationCode="BILL" networkCode="IR"/></amplitude><amplitude publicID="quakeml:us.anss.org/amplitude/pde20100314080803960_32/QIZ/surface_z"><genericAmplitude><value>0.00006998</value></genericAmplitude><category>period</category><unit>m</unit><period><value>19.0</value></period><pickID>quakeml:us.anss.org/pick/pde20100314080803960_32/QIZ/P</pickID><waveformID stationCode="QIZ" networkCode="IR"/></amplitude><amplitude publicID="quakeml:us.anss.org/amplitude/pde20100314080803960_32/DAV/surface_z"><genericAmplitude><value>0.00004582</value></genericAmplitude><category>period</category><unit>m</unit><period><value>21.0</value></period><pickID>quakeml:us.anss.org/pick/pde20100314080803960_32/DAV/P</pickID><waveformID stationCode="DAV" networkCode="IR"/></amplitude><amplitude publicID="quakeml:us.anss.org/amplitude/pde20100314080803960_32/TIXI/surface_z"><genericAmplitude><value>0.00006113</value></genericAmplitude><category>period</category><unit>m</unit><period><value>20.0</value></period><pickID>quakeml:us.anss.org/pick/pde20100314080803960_32/TIXI/P</pickID><waveformID stationCode="TIXI" networkCode="IR"/></amplitude><amplitude publicID="quakeml:us.anss.org/amplitude/pde20100314080803960_32/KKM/surface_z"><genericAmplitude><value>0.00002939</value></genericAmplitude><category>period</category><unit>m</unit><period><value>22.0</value></period><pickID>quakeml:us.anss.org/pick/pde20100314080803960_32/KKM/P</pickID><waveformID stationCode="KKM" networkCode="IR"/></amplitude><amplitude publicID="quakeml:us.anss.org/amplitude/pde20100314080803960_32/CHTO/surface_z"><genericAmplitude><value>0.00003685</value></genericAmplitude><category>period</category><unit>m</unit><period><value>19.0</value></period><pickID>quakeml:us.anss.org/pick/pde20100314080803960_32/CHTO/P</pickID><waveformID stationCode="CHTO" networkCode="IR"/></amplitude><amplitude publicID="quakeml:us.anss.org/amplitude/pde20100314080803960_32/LSA/surface_z"><genericAmplitude><value>0.00006240</value></genericAmplitude><category>period</category><unit>m</unit><period><value>21.0</value></period><pickID>quakeml:us.anss.org/pick/pde20100314080803960_32/LSA/P</pickID><waveformID stationCode="LSA" networkCode="IR"/></amplitude><amplitude publicID="quakeml:us.anss.org/amplitude/pde20100314080803960_32/KURK/surface_z"><genericAmplitude><value>0.00006504</value></genericAmplitude><category>period</category><unit>m</unit><period><value>20.0</value></period><pickID>quakeml:us.anss.org/pick/pde20100314080803960_32/KURK/P</pickID><waveformID stationCode="KURK" networkCode="IR"/></amplitude><amplitude publicID="quakeml:us.anss.org/amplitude/pde20100314080803960_32/KSM/surface_z"><genericAmplitude><value>0.00000924</value></genericAmplitude><category>period</category><unit>m</unit><period><value>21.0</value></period><pickID>quakeml:us.anss.org/pick/pde20100314080803960_32/KSM/P</pickID><waveformID stationCode="KSM" networkCode="IR"/></amplitude><amplitude publicID="quakeml:us.anss.org/amplitude/pde20100314080803960_32/TARA/surface_z"><genericAmplitude><value>0.00008116</value></genericAmplitude><category>period</category><unit>m</unit><period><value>21.0</value></period><pickID>quakeml:us.anss.org/pick/pde20100314080803960_32/TARA/P</pickID><waveformID stationCode="TARA" networkCode="IR"/></amplitude><amplitude publicID="quakeml:us.anss.org/amplitude/pde20100314080803960_32/KDAK/surface_z"><genericAmplitude><value>0.00005243</value></genericAmplitude><category>period</category><unit>m</unit><period><value>21.0</value></period><pickID>quakeml:us.anss.org/pick/pde20100314080803960_32/KDAK/P</pickID><waveformID stationCode="KDAK" networkCode="IR"/></amplitude><amplitude publicID="quakeml:us.anss.org/amplitude/pde20100314080803960_32/KAPI/surface_z"><genericAmplitude><value>0.00001242</value></genericAmplitude><category>period</category><unit>m</unit><period><value>21.0</value></period><pickID>quakeml:us.anss.org/pick/pde20100314080803960_32/KAPI/P</pickID><waveformID stationCode="KAPI" networkCode="IR"/></amplitude><amplitude publicID="quakeml:us.anss.org/amplitude/pde20100314080803960_32/PMG/surface_z"><genericAmplitude><value>0.00001945</value></genericAmplitude><category>period</category><unit>m</unit><period><value>21.0</value></period><pickID>quakeml:us.anss.org/pick/pde20100314080803960_32/PMG/P</pickID><waveformID stationCode="PMG" networkCode="IR"/></amplitude><amplitude publicID="quakeml:us.anss.org/amplitude/pde20100314080803960_32/COLA/surface_z"><genericAmplitude><value>0.00001771</value></genericAmplitude><category>period</category><unit>m</unit><period><value>21.0</value></period><pickID>quakeml:us.anss.org/pick/pde20100314080803960_32/COLA/P</pickID><waveformID stationCode="COLA" networkCode="IR"/></amplitude><amplitude publicID="quakeml:us.anss.org/amplitude/pde20100314080803960_32/KULM/surface_z"><genericAmplitude><value>0.00003673</value></genericAmplitude><category>period</category><unit>m</unit><period><value>20.0</value></period><pickID>quakeml:us.anss.org/pick/pde20100314080803960_32/KULM/P</pickID><waveformID stationCode="KULM" networkCode="IR"/></amplitude><amplitude publicID="quakeml:us.anss.org/amplitude/pde20100314080803960_32/TKM2/surface_z"><genericAmplitude><value>0.00010358</value></genericAmplitude><category>period</category><unit>m</unit><period><value>21.0</value></period><pickID>quakeml:us.anss.org/pick/pde20100314080803960_32/TKM2/P</pickID><waveformID stationCode="TKM2" networkCode="IR"/></amplitude><amplitude publicID="quakeml:us.anss.org/amplitude/pde20100314080803960_32/BRVK/surface_z"><genericAmplitude><value>0.00010005</value></genericAmplitude><category>period</category><unit>m</unit><period><value>19.0</value></period><pickID>quakeml:us.anss.org/pick/pde20100314080803960_32/BRVK/P</pickID><waveformID stationCode="BRVK" networkCode="IR"/></amplitude><amplitude publicID="quakeml:us.anss.org/amplitude/pde20100314080803960_32/EKS2/surface_z"><genericAmplitude><value>0.00007748</value></genericAmplitude><category>period</category><unit>m</unit><period><value>21.0</value></period><pickID>quakeml:us.anss.org/pick/pde20100314080803960_32/EKS2/P</pickID><waveformID stationCode="EKS2" networkCode="IR"/></amplitude><amplitude publicID="quakeml:us.anss.org/amplitude/pde20100314080803960_32/EGAK/surface_z"><genericAmplitude><value>0.00001443</value></genericAmplitude><category>period</category><unit>m</unit><period><value>19.0</value></period><pickID>quakeml:us.anss.org/pick/pde20100314080803960_32/EGAK/P</pickID><waveformID station