<q:quakeml xmlns="http://quakeml.org/xmlns/bed/1.2" xmlns:catalog="http://anss.org/xmlns/catalog/0.1" xmlns:q="http://quakeml.org/xmlns/quakeml/1.2"><eventParameters publicID="quakeml:US.anss.org/eventParameters/pde20000102042021390_33/1351635048690"><event catalog:eventid="20000102042021390_33" catalog:eventsource="pde" catalog:dataid="pde20000102042021390_33" catalog:datasource="US" publicID="quakeml:US.anss.org/event/pde20000102042021390_33"><description><text>248</text><type>Flinn-Engdahl region</type></description><comment><text>Preferred magnitude chosen using pickmag_pre2011.</text></comment><origin publicID="quakeml:us.anss.org/origin/pde20000102042021390_33"><originUncertainty><minHorizontalUncertainty>15130</minHorizontalUncertainty><maxHorizontalUncertainty>22890</maxHorizontalUncertainty><confidenceEllipsoid><semiMajorAxisLength>34700</semiMajorAxisLength><semiMinorAxisLength>0</semiMinorAxisLength><semiIntermediateAxisLength>11400</semiIntermediateAxisLength><majorAxisPlunge>0.00</majorAxisPlunge><majorAxisAzimuth>59.58</majorAxisAzimuth><majorAxisRotation>0.00</majorAxisRotation></confidenceEllipsoid></originUncertainty><arrival publicID="quakeml:us.anss.org/arrival/pde20000102042021390_33/PLP/P"><pickID>quakeml:us.anss.org/pick/pde20000102042021390_33/PLP/P</pickID><phase>P</phase><azimuth>300.5</azimuth><distance>1.36</distance><timeResidual>-0.3</timeResidual><timeWeight>1</timeWeight></arrival><arrival publicID="quakeml:us.anss.org/arrival/pde20000102042021390_33/LLP/P"><pickID>quakeml:us.anss.org/pick/pde20000102042021390_33/LLP/P</pickID><phase>P</phase><azimuth>266.2</azimuth><distance>2.18</distance><timeResidual>0.0</timeResidual><timeWeight>1</timeWeight></arrival><arrival publicID="quakeml:us.anss.org/arrival/pde20000102042021390_33/BIP/P"><pickID>quakeml:us.anss.org/pick/pde20000102042021390_33/BIP/P</pickID><phase>P</phase><azimuth>178.1</azimuth><distance>2.23</distance><timeResidual>-0.3</timeResidual><timeWeight>1</timeWeight></arrival><arrival publicID="quakeml:us.anss.org/arrival/pde20000102042021390_33/TBP/P"><pickID>quakeml:us.anss.org/pick/pde20000102042021390_33/TBP/P</pickID><phase>P</phase><azimuth>251.5</azimuth><distance>2.41</distance><timeResidual>-0.8</timeResidual><timeWeight>1</timeWeight></arrival><arrival publicID="quakeml:us.anss.org/arrival/pde20000102042021390_33/CGP/P"><pickID>quakeml:us.anss.org/pick/pde20000102042021390_33/CGP/P</pickID><phase>P</phase><azimuth>216.3</azimuth><distance>2.48</distance><timeResidual>0.6</timeResidual><timeWeight>1</timeWeight></arrival><arrival publicID="quakeml:us.anss.org/arrival/pde20000102042021390_33/RCP/P"><pickID>quakeml:us.anss.org/pick/pde20000102042021390_33/RCP/P</pickID><phase>P</phase><azimuth>288.2</azimuth><distance>3.54</distance><timeResidual>0.6</timeResidual><timeWeight>1</timeWeight></arrival><arrival publicID="quakeml:us.anss.org/arrival/pde20000102042021390_33/KCP/P"><pickID>quakeml:us.anss.org/pick/pde20000102042021390_33/KCP/P</pickID><phase>P</phase><azimuth>197.4</azimuth><distance>3.60</distance><timeResidual>45.7</timeResidual><timeWeight>0</timeWeight></arrival><time><value>2000-01-02T04:20:21.390Z</value><uncertainty>2.56</uncertainty><upperUncertainty>16000</upperUncertainty><confidenceLevel>0.90</confidenceLevel></time><longitude><value>126.176</value></longitude><latitude><value>10.470</value></latitude><depth><value>33000</value></depth><depthType>operator assigned</depthType><quality><standardError>0.73</standardError></quality></origin><pick publicID="quakeml:us.anss.org/pick/pde20000102042021390_33/PLP/P"><time><value>2000-01-02T04:20:44.000Z</value></time><waveformID stationCode="PLP" networkCode="IR"/><onset>impulsive</onset><phaseHint>P</phaseHint><polarity>negative</polarity></pick><pick publicID="quakeml:us.anss.org/pick/pde20000102042021390_33/LLP/P"><time><value>2000-01-02T04:20:56.000Z</value></time><waveformID stationCode="LLP" networkCode="IR"/><onset>emergent</onset><phaseHint>P</phaseHint><polarity>positive</polarity></pick><pick publicID="quakeml:us.anss.org/pick/pde20000102042021390_33/BIP/P"><time><value>2000-01-02T04:20:56.500Z</value></time><waveformID stationCode="BIP" networkCode="IR"/><onset>emergent</onset><phaseHint>P</phaseHint><polarity>negative</polarity></pick><pick publicID="quakeml:us.anss.org/pick/pde20000102042021390_33/BIP/S"><time><value>2000-01-02T04:21:22.000Z</value></time><waveformID stationCode="BIP" networkCode="IR"/><onset>emergent</onset><phaseHint>S</phaseHint></pick><pick publicID="quakeml:us.anss.org/pick/pde20000102042021390_33/TBP/P"><time><value>2000-01-02T04:20:58.500Z</value></time><waveformID stationCode="TBP" networkCode="IR"/><onset>emergent</onset><phaseHint>P</phaseHint><polarity>positive</polarity></pick><pick publicID="quakeml:us.anss.org/pick/pde20000102042021390_33/CGP/P"><time><value>2000-01-02T04:21:01.000Z</value></time><waveformID stationCode="CGP" networkCode="IR"/><onset>emergent</onset><phaseHint>P</phaseHint></pick><pick publicID="quakeml:us.anss.org/pick/pde20000102042021390_33/RCP/P"><time><value>2000-01-02T04:21:16.000Z</value></time><waveformID stationCode="RCP" networkCode="IR"/><onset>emergent</onset><phaseHint>P</phaseHint><polarity>negative</polarity></pick><pick publicID="quakeml:us.anss.org/pick/pde20000102042021390_33/KCP/P"><time><value>2000-01-02T04:22:02.000Z</value></time><waveformID stationCode="KCP" networkCode="IR"/><onset>emergent</onset><phaseHint>P</phaseHint></pick><preferredOriginID>quakeml:us.anss.org/origin/pde20000102042021390_33</preferredOriginID></event><creationInfo><agencyID>US</agencyID><creationTime>2012-10-30T22:10:48.690Z</creationTime></creationInfo></eventParameters></q:quakeml>