<q:quakeml xmlns="http://quakeml.org/xmlns/bed/1.2" xmlns:catalog="http://anss.org/xmlns/catalog/0.1" xmlns:q="http://quakeml.org/xmlns/quakeml/1.2" xmlns:anss="http://anss.org/xmlns/event/0.1"><eventParameters publicID="quakeml:nc.anss.org/catalog/NC/1/142748904505"><event publicID="quakeml:nc.anss.org/Event/NC/72418635" catalog:datasource="nc" catalog:dataid="nc72418635" catalog:eventsource="nc" catalog:eventid="72418635"><amplitude publicID="quakeml:nc.anss.org/Coda/NC/17870985"><genericAmplitude><value>3</value></genericAmplitude><type>END</type><category>duration</category><unit>s</unit><timeWindow><begin>0.0</begin><end>2</end><reference>2015-03-27T20:42:48.900Z</reference></timeWindow><pickID>quakeml:nc.anss.org/Arrival/NC/22661580</pickID><waveformID networkCode="BK" stationCode="SUTB" channelCode="HHZ" locationCode="00"></waveformID><magnitudeHint>MD</magnitudeHint><evaluationMode>automatic</evaluationMode><evaluationStatus>preliminary</evaluationStatus></amplitude><amplitude publicID="quakeml:nc.anss.org/Coda/NC/17870990"><genericAmplitude><value>1</value></genericAmplitude><type>END</type><category>duration</category><unit>s</unit><timeWindow><begin>0.0</begin><end>2</end><reference>2015-03-27T20:42:55.020Z</reference></timeWindow><pickID>quakeml:nc.anss.org/Arrival/NC/22661585</pickID><waveformID networkCode="NC" stationCode="MPR" channelCode="EHZ" locationCode=""></waveformID><magnitudeHint>MD</magnitudeHint><evaluationMode>automatic</evaluationMode><evaluationStatus>preliminary</evaluationStatus></amplitude><amplitude publicID="quakeml:nc.anss.org/Coda/NC/17870995"><genericAmplitude><value>3</value></genericAmplitude><type>END</type><category>duration</category><unit>s</unit><timeWindow><begin>0.0</begin><end>2</end><reference>2015-03-27T20:43:03.660Z</reference></timeWindow><pickID>quakeml:nc.anss.org/Arrival/NC/22661590</pickID><waveformID networkCode="NC" stationCode="NMW" channelCode="EHZ" locationCode=""></waveformID><magnitudeHint>MD</magnitudeHint><evaluationMode>automatic</evaluationMode><evaluationStatus>preliminary</evaluationStatus></amplitude><amplitude publicID="quakeml:nc.anss.org/Coda/NC/17871000"><genericAmplitude><value>7</value></genericAmplitude><type>END</type><category>duration</category><unit>s</unit><timeWindow><begin>0.0</begin><end>2</end><reference>2015-03-27T20:43:25.160Z</reference></timeWindow><pickID>quakeml:nc.anss.org/Arrival/NC/22661595</pickID><waveformID networkCode="NC" stationCode="PCB" channelCode="EHZ" locationCode=""></waveformID><magnitudeHint>MD</magnitudeHint><evaluationMode>automatic</evaluationMode><evaluationStatus>preliminary</evaluationStatus></amplitude><amplitude publicID="quakeml:nc.anss.org/Coda/NC/17871005"><genericAmplitude><value>3</value></genericAmplitude><type>END</type><category>duration</category><unit>s</unit><timeWindow><begin>0.0</begin><end>2</end><reference>2015-03-27T20:43:18.470Z</reference></timeWindow><pickID>quakeml:nc.anss.org/Arrival/NC/22661600</pickID><waveformID networkCode="NC" stationCode="PPT" channelCode="EHZ" locationCode=""></waveformID><magnitudeHint>MD</magnitudeHint><evaluationMode>automatic</evaluationMode><evaluationStatus>preliminary</evaluationStatus></amplitude><amplitude publicID="quakeml:nc.anss.org/Coda/NC/17871010"><genericAmplitude><value>3</value></genericAmplitude><type>END</type><category>duration</category><unit>s</unit><timeWindow><begin>0.0</begin><end>2</end><reference>2015-03-27T20:42:42.100Z</reference></timeWindow><pickID>quakeml:nc.anss.org/Arrival/NC/22661605</pickID><waveformID networkCode="NN" stationCode="BEK" channelCode="HHZ" locationCode=""></waveformID><magnitudeHint>MD</magnitudeHint><evaluationMode>automatic</evaluationMode><evaluationStatus>preliminary</evaluationStatus></amplitude><amplitude publicID="quakeml:nc.anss.org/Coda/NC/17871015"><genericAmplitude><value>3</value></genericAmplitude><type>END</type><category>duration</category><unit>s</unit><timeWindow><begin>0.0</begin><end>2</end><reference>2015-03-27T20:42:44.060Z</reference></timeWindow><pickID>quakeml:nc.anss.org/Arrival/NC/22661610</pickID><waveformID networkCode="NN" stationCode="GZY" channelCode="EHZ" locationCode=""></waveformID><magnitudeHint>MD</magnitudeHint><evaluationMode>automatic</evaluationMode><evaluationStatus>preliminary</evaluationStatus></amplitude><amplitude publicID="quakeml:nc.anss.org/Coda/NC/17871020"><genericAmplitude><value>19</value></genericAmplitude><type>END</type><category>duration</category><unit>s</unit><timeWindow><begin>0.0</begin><end>2</end><reference>2015-03-27T20:42:35.180Z</reference></timeWindow><pickID>quakeml:nc.anss.org/Arrival/NC/22661615</pickID><waveformID networkCode="NN" stationCode="IND" channelCode="EHZ" locationCode=""></waveformID><magnitudeHint>MD</magnitudeHint><evaluationMode>automatic</evaluationMode><evaluationStatus>preliminary</evaluationStatus></amplitude><amplitude publicID="quakeml:nc.anss.org/Coda/NC/17871025"><genericAmplitude><value>15</value></genericAmplitude><type>END</type><category>duration</category><unit>s</unit><timeWindow><begin>0.0</begin><end>2</end><reference>2015-03-27T20:42:36.710Z</reference></timeWindow><pickID>quakeml:nc.anss.org/Arrival/NC/22661620</pickID><waveformID networkCode="NN" stationCode="KBF" channelCode="EHZ" locationCode=""></waveformID><magnitudeHint>MD</magnitudeHint><evaluationMode>automatic</evaluationMode><evaluationStatus>preliminary</evaluationStatus></amplitude><amplitude publicID="quakeml:nc.anss.org/Coda/NC/17871030"><genericAmplitude><value>21</value></genericAmplitude><type>END</type><category>duration</category><unit>s</unit><timeWindow><begin>0.0</begin><end>2</end><reference>2015-03-27T20:42:43.560Z</reference></timeWindow><pickID>quakeml:nc.anss.org/Arrival/NC/22661625</pickID><waveformID networkCode="NN" stationCode="LVO" channelCode="EHZ" locationCode=""></waveformID><magnitudeHint>MD</magnitudeHint><evaluationMode>automatic</evaluationMode><evaluationStatus>preliminary</evaluationStatus></amplitude><amplitude publicID="quakeml:nc.anss.org/Coda/NC/17871035"><genericAmplitude><value>22</value></genericAmplitude><type>END</type><category>duration</category><unit>s</unit><timeWindow><begin>0.0</begin><end>2</end><reference>2015-03-27T20:42:34.760Z</reference></timeWindow><pickID>quakeml:nc.anss.org/Arrival/NC/22661630</pickID><waveformID networkCode="NN" stationCode="RUB" channelCode="HHZ" locationCode=""></waveformID><magnitudeHint>MD</magnitudeHint><evaluationMode>automatic</evaluationMode><evaluationStatus>preliminary</evaluationStatus></amplitude><amplitude publicID="quakeml:nc.anss.org/Coda/NC/17871040"><genericAmplitude><value>23</value></genericAmplitude><type>END</type><category>duration</category><unit>s</unit><timeWindow><begin>0.0</begin><end>2</end><reference>2015-03-27T20:42:38.440Z</reference></timeWindow><pickID>quakeml:nc.anss.org/Arrival/NC/22661635</pickID><waveformID networkCode="NN" stationCode="SBT" channelCode="EHZ" locationCode=""></waveformID><magnitudeHint>MD</magnitudeHint><evaluationMode>automatic</evaluationMode><evaluationStatus>preliminary</evaluationStatus></amplitude><amplitude publicID="quakeml:nc.anss.org/Coda/NC/17871045"><genericAmplitude><value>7</value></genericAmplitude><type>END</type><category>duration</category><unit>s</unit><timeWindow><begin>0.0</begin><end>2</end><reference>2015-03-27T20:43:20.310Z</reference></timeWindow><pickID>quakeml:nc.anss.org/Arrival/NC/22661640</pickID><waveformID networkCode="PG" stationCode="LQ" channelCode="EHZ" locationCode=""></waveformID><magnitudeHint>MD</magnitudeHint><evaluationMode>automatic</evaluationMode><evaluationStatus>preliminary</evaluationStatus></amplitude><magnitude publicID="quakeml:nc.anss.org/Netmag/NC/1101445"><stationMagnitudeContribution><stationMagnitudeID>quakeml:nc.anss.org/AssocCoM/NC/17871035</stationMagnitudeID><residual>0.00</residual></stationMagnitudeContribution><stationMagnitudeContribution><stationMagnitudeID>quakeml:nc.anss.org/AssocCoM/NC/17871025</stationMagnitudeID><residual>-0.04</residual></stationMagnitudeContribution><stationMagnitudeContribution><stationMagnitudeID>quakeml:nc.anss.org/AssocCoM/NC/17871000</stationMagnitudeID><residual>0.48</residual></stationMagnitudeContribution><stationMagnitudeContribution><stationMagnitudeID>quakeml:nc.anss.org/AssocCoM/NC/17871040</stationMagnitudeID><residual>0.22</residual></stationMagnitudeContribution><stationMagnitudeContribution><stationMagnitudeID>quakeml:nc.anss.org/AssocCoM/NC/17871010</stationMagnitudeID><residual>-1.39</residual></stationMagnitudeContribution><stationMagnitudeContribution><stationMagnitudeID>quakeml:nc.anss.org/AssocCoM/NC/17870995</stationMagnitudeID><residual>-1.02</residual></stationMagnitudeContribution><stationMagnitudeContribution><stationMagnitudeID>quakeml:nc.anss.org/AssocCoM/NC/17870990</stationMagnitudeID><residual>-1.72</residual></stationMagnitudeContribution><stationMagnitudeContribution><stationMagnitudeID>quakeml:nc.anss.org/AssocCoM/NC/17871015</stationMagnitudeID><residual>-1.45</residual></stationMagnitudeContribution><stationMagnitudeContribution><stationMagnitudeID>quakeml:nc.anss.org/AssocCoM/NC/17871045</stationMagnitudeID><residual>-0.20</residual></stationMagnitudeContribution><stationMagnitudeContribution><stationMagnitudeID>quakeml:nc.anss.org/AssocCoM/NC/17871005</stationMagnitudeID><residual>-1.03</residual></stationMagnitudeContribution><stationMagnitudeContribution><stationMagnitudeID>quakeml:nc.anss.org/AssocCoM/NC/17870985</stationMagnitudeID><residual>-1.34</residual></stationMagnitudeContribution><stationMagnitudeContribution><stationMagnitudeID>quakeml:nc.anss.org/AssocCoM/NC/17871030</stationMagnitudeID><residual>1.43</residual></stationMagnitudeContribution><stationMagnitudeContribution><stationMagnitudeID>quakeml:nc.anss.org/AssocCoM/NC/17871020</stationMagnitudeID><residual>-0.05</residual></stationMagnitudeContribution><mag><value>1.72</value><uncertainty>0.05</uncertainty></mag><type>Md</type><originID>quakeml:nc.anss.org/Origin/NC/1932200</originID><methodID>smi:nc.anss.org/magnitude/pickew/eqcoda</methodID><stationCount>5</stationCount><evaluationMode>automatic</evaluationMode><evaluationStatus>preliminary</evaluationStatus><creationInfo><agencyID>NC</agencyID><creationTime>2015-03-27T20:44:02.000Z</creationTime></creationInfo></magnitude><stationMagnitude publicID="quakeml:nc.anss.org/AssocCoM/NC/17870985"><originID>quakeml:nc.anss.org/Origin/NC/1932200</originID><mag><value>0.38</value></mag><type>MD</type><amplitudeID>quakeml:nc.anss.org/Coda/NC/17870985</amplitudeID><waveformID networkCode="BK" stationCode="SUTB" channelCode="HHZ" locationCode="00"></waveformID></stationMagnitude><stationMagnitude publicID="quakeml:nc.anss.org/AssocCoM/NC/17870990"><originID>quakeml:nc.anss.org/Origin/NC/1932200</originID><mag><value>0</value></mag><type>MD</type><amplitudeID>quakeml:nc.anss.org/Coda/NC/17870990</amplitudeID><waveformID networkCode="NC" stationCode="MPR" channelCode="EHZ" locationCode=""></waveformID></stationMagnitude><stationMagnitude publicID="quakeml:nc.anss.org/AssocCoM/NC/17870995"><originID>quakeml:nc.anss.org/Origin/NC/1932200</originID><mag><value>0.7</value></mag><type>MD</type><amplitudeID>quakeml:nc.anss.org/Coda/NC/17870995</amplitudeID><waveformID networkCode="NC" stationCode="NMW" channelCode="EHZ" locationCode=""></waveformID></stationMagnitude><stationMagnitude publicID="quakeml:nc.anss.org/AssocCoM/NC/17871000"><originID>quakeml:nc.anss.org/Origin/NC/1932200</originID><mag><value>2.2</value></mag><type>MD</type><amplitudeID>quakeml:nc.anss.org/Coda/NC/17871000</amplitudeID><waveformID networkCode="NC" stationCode="PCB" channelCode="EHZ" locationCode=""></waveformID></stationMagnitude><stationMagnitude publicID="quakeml:nc.anss.org/AssocCoM/NC/17871005"><originID>quakeml:nc.anss.org/Origin/NC/1932200</originID><mag><value>0.69</value></mag><type>MD</type><amplitudeID>quakeml:nc.anss.org/Coda/NC/17871005</amplitudeID><waveformID networkCode="NC" stationCode="PPT" channelCode="EHZ" locationCode=""></waveformID></stationMagnitude><stationMagnitude publicID="quakeml:nc.anss.org/AssocCoM/NC/17871010"><originID>quakeml:nc.anss.org/Origin/NC/1932200</originID><mag><value>0.33</value></mag><type>MD</type><amplitudeID>quakeml:nc.anss.org/Coda/NC/17871010</amplitudeID><waveformID networkCode="NN" stationCode="BEK" channelCode="HHZ" locationCode=""></waveformID></stationMagnitude><stationMagnitude publicID="quakeml:nc.anss.org/AssocCoM/NC/17871015"><originID>quakeml:nc.anss.org/Origin/NC/1932200</originID><mag><value>0.27</value></mag><type>MD</type><amplitudeID>quakeml:nc.anss.org/Coda/NC/17871015</amplitudeID><waveformID networkCode="NN" stationCode="GZY" channelCode="EHZ" locationCode=""></waveformID></stationMagnitude><stationMagnitude publicID="quakeml:nc.anss.org/AssocCoM/NC/17871020"><originID>quakeml:nc.anss.org/Origin/NC/1932200</originID><mag><value>1.67</value></mag><type>MD</type><amplitudeID>quakeml:nc.anss.org/Coda/NC/17871020</amplitudeID><waveformID networkCode="NN" stationCode="IND" channelCode="EHZ" locationCode=""></waveformID></stationMagnitude><stationMagnitude publicID="quakeml:nc.anss.org/AssocCoM/NC/17871025"><originID>quakeml:nc.anss.org/Origin/NC/1932200</originID><mag><value>1.68</value></mag><type>MD</type><amplitudeID>quakeml:nc.anss.org/Coda/NC/17871025</amplitudeID><waveformID networkCode="NN" stationCode="KBF" channelCode="EHZ" locationCode=""></waveformID></stationMagnitude><stationMagnitude publicID="quakeml:nc.anss.org/AssocCoM/NC/17871030"><originID>quakeml:nc.anss.org/Origin/NC/1932200</originID><mag><value>3.15</value></mag><type>MD</type><amplitudeID>quakeml:nc.anss.org/Coda/NC/17871030</amplitudeID><waveformID networkCode="NN" stationCode="LVO" channelCode="EHZ" locationCode=""></waveformID></stationMagnitude><stationMagnitude publicID="quakeml:nc.anss.org/AssocCoM/NC/17871035"><originID>quakeml:nc.anss.org/Origin/NC/1932200</originID><mag><value>1.72</value></mag><type>MD</type><amplitudeID>quakeml:nc.anss.org/Coda/NC/17871035</amplitudeID><waveformID networkCode="NN" stationCode="RUB" channelCode="HHZ" locationCode=""></waveformID></stationMagnitude><stationMagnitude publicID="quakeml:nc.anss.org/AssocCoM/NC/17871040"><originID>quakeml:nc.anss.org/Origin/NC/1932200</originID><mag><value>1.94</value></mag><type>MD</type><amplitudeID>quakeml:nc.anss.org/Coda/NC/17871040</amplitudeID><waveformID networkCode="NN" stationCode="SBT" channelCode="EHZ" locationCode=""></waveformID></stationMagnitude><stationMagnitude publicID="quakeml:nc.anss.org/AssocCoM/NC/17871045"><originID>quakeml:nc.anss.org/Origin/NC/1932200</originID><mag><value>1.52</value></mag><type>MD</type><amplitudeID>quakeml:nc.anss.org/Coda/NC/17871045</amplitudeID><waveformID networkCode="PG" stationCode="LQ" channelCode="EHZ" locationCode=""></waveformID></stationMagnitude><origin publicID="quakeml:nc.anss.org/Origin/NC/1932200" catalog:datasource="nc" catalog:dataid="nc72418635" catalog:eventsource="nc" catalog:eventid="72418635"><originUncertainty><horizontalUncertainty>600</horizontalUncertainty><preferredDescription>horizontal uncertainty</preferredDescription></originUncertainty><arrival publicID="quakeml:nc.anss.org/AssocArO/NC/22661580"><pickID>quakeml:nc.anss.org/Arrival/NC/22661580</pickID><phase>P</phase><timeCorrection>0.13</timeCorrection><azimuth>273</azimuth><distance>1.045</distance><takeoffAngle><value>82</value></takeoffAngle><timeResidual>0.17</timeResidual><timeWeight>0.07</timeWeight><creationInfo><agencyID>NC</agencyID><creationTime>2015-03-27T20:44:02.000Z</creationTime></creationInfo></arrival><arrival publicID="quakeml:nc.anss.org/AssocArO/NC/22661585"><pickID>quakeml:nc.anss.org/Arrival/NC/22661585</pickID><phase>P</phase><timeCorrection>-0.13</timeCorrection><azimuth>166</azimuth><distance>1.418</distance><takeoffAngle><value>77</value></takeoffAngle><timeResidual>0.05</timeResidual><timeWeight>0.01</timeWeight><creationInfo><agencyID>NC</agencyID><creationTime>2015-03-27T20:44:02.000Z</creationTime></creationInfo></arrival><arrival publicID="quakeml:nc.anss.org/AssocArO/NC/22661590"><pickID>quakeml:nc.anss.org/Arrival/NC/22661590</pickID><phase>P</phase><timeCorrection>-0.5</timeCorrection><azimuth>252</azimuth><distance>1.890</distance><takeoffAngle><value>51</value></takeoffAngle><timeResidual>2.19</timeResidual><timeWeight>0.00</timeWeight><creationInfo><agencyID>NC</agencyID><creationTime>2015-03-27T20:44:02.000Z</creationTime></creationInfo></arrival><arrival publicID="quakeml:nc.anss.org/AssocArO/NC/22661595"><pickID>quakeml:nc.anss.org/Arrival/NC/22661595</pickID><phase>P</phase><timeCorrection>0</timeCorrection><azimuth>188</azimuth><distance>3.693</distance><takeoffAngle><value>51</value></takeoffAngle><timeResidual>-1.87</timeResidual><timeWeight>0.00</timeWeight><creationInfo><agencyID>NC</agencyID><creationTime>2015-03-27T20:44:02.000Z</creationTime></creationInfo></arrival><arrival publicID="quakeml:nc.anss.org/AssocArO/NC/22661600"><pickID>quakeml:nc.anss.org/Arrival/NC/22661600</pickID><phase>P</phase><timeCorrection>0</timeCorrection><azimuth>185</azimuth><distance>3.078</distance><takeoffAngle><value>51</value></takeoffAngle><timeResidual>-0.02</timeResidual><timeWeight>0.00</timeWeight><creationInfo><agencyID>NC</agencyID><creationTime>2015-03-27T20:44:02.000Z</creationTime></creationInfo></arrival><arrival publicID="quakeml:nc.anss.org/AssocArO/NC/22661605"><pickID>quakeml:nc.anss.org/Arrival/NC/22661605</pickID><phase>P</phase><timeCorrection>-0.13</timeCorrection><azimuth>5</azimuth><distance>0.6842</distance><takeoffAngle><value>86</value></takeoffAngle><timeResidual>-0.03</timeResidual><timeWeight>0.13</timeWeight><creationInfo><agencyID>NC</agencyID><creationTime>2015-03-27T20:44:02.000Z</creationTime></creationInfo></arrival><arrival publicID="quakeml:nc.anss.org/AssocArO/NC/22661610"><pickID>quakeml:nc.anss.org/Arrival/NC/22661610</pickID><phase>P</phase><timeCorrection>-0.09</timeCorrection><azimuth>349</azimuth><distance>0.7929</distance><takeoffAngle><value>85</value></takeoffAngle><timeResidual>-0.02</timeResidual><timeWeight>0.13</timeWeight><creationInfo><agencyID>NC</agencyID><creationTime>2015-03-27T20:44:02.000Z</creationTime></creationInfo></arrival><arrival publicID="quakeml:nc.anss.org/AssocArO/NC/22661615"><pickID>quakeml:nc.anss.org/Arrival/NC/22661615</pickID><phase>P</phase><timeCorrection>0.1</timeCorrection><azimuth>25</azimuth><distance>0.2756</distance><takeoffAngle><value>96</value></takeoffAngle><timeResidual>0.04</timeResidual><timeWeight>0.13</timeWeight><creationInfo><agencyID>NC</agencyID><creationTime>2015-03-27T20:44:02.000Z</creationTime></creationInfo></arrival><arrival publicID="quakeml:nc.anss.org/AssocArO/NC/22661620"><pickID>quakeml:nc.anss.org/Arrival/NC/22661620</pickID><phase>P</phase><timeCorrection>-0.02</timeCorrection><azimuth>28</azimuth><distance>0.3683</distance><takeoffAngle><value>93</value></takeoffAngle><timeResidual>0.06</timeResidual><timeWeight>0.13</timeWeight><creationInfo><agencyID>NC</agencyID><creationTime>2015-03-27T20:44:02.000Z</creationTime></creationInfo></arrival><arrival publicID="quakeml:nc.anss.org/AssocArO/NC/22661625"><pickID>quakeml:nc.anss.org/Arrival/NC/22661625</pickID><phase>P</phase><timeCorrection>-0.01</timeCorrection><azimuth>335</azimuth><distance>0.7624</distance><takeoffAngle><value>85</value></takeoffAngle><timeResidual>-0.06</timeResidual><timeWeight>0.03</timeWeight><creationInfo><agencyID>NC</agencyID><creationTime>2015-03-27T20:44:02.000Z</creationTime></creationInfo></arrival><arrival publicID="quakeml:nc.anss.org/AssocArO/NC/22661630"><pickID>quakeml:nc.anss.org/Arrival/NC/22661630</pickID><phase>P</phase><timeCorrection>0.01</timeCorrection><azimuth>120</azimuth><distance>0.2601</distance><takeoffAngle><value>97</value></takeoffAngle><timeResidual>-0.03</timeResidual><timeWeight>0.13</timeWeight><creationInfo><agencyID>NC</agencyID><creationT