<?xml version='1.0' encoding='utf-8'?>
<q:quakeml xmlns:q="http://quakeml.org/xmlns/quakeml/1.2" xmlns:catalog="http://anss.org/xmlns/catalog/0.1" xmlns:css="http://www.seismo.unr.edu/schema/css3.0" xmlns="http://quakeml.org/xmlns/bed/1.2">
  <eventParameters publicID="quakeml:www.seismo.unr.edu/Catalog/488366">
    <creationInfo>
      <agencyID>NN</agencyID>
      <creationTime>2015-03-27T21:37:01.309410Z</creationTime>
      <version>488366</version>
    </creationInfo>
    <event publicID="quakeml:www.seismo.unr.edu/Events/main.php?evid=488366" catalog:eventid="00488366" catalog:dataid="nn00488366" catalog:eventsource="nn" catalog:datasource="nn">
      <preferredOriginID>quakeml:www.seismo.unr.edu/Origin/1251937</preferredOriginID>
      <preferredMagnitudeID>quakeml:www.seismo.unr.edu/Magnitude/ml/259547</preferredMagnitudeID>
      <type>earthquake</type>
      <description>
        <text>7.3 km W of Tahoe_City, CA</text>
        <type>nearest cities</type>
      </description>
      <creationInfo>
        <agencyID>NN</agencyID>
        <author>BRTT:tom</author>
        <creationTime>2015-03-27T21:34:04.681830Z</creationTime>
        <version>488366</version>
      </creationInfo>
      <origin publicID="quakeml:www.seismo.unr.edu/Origin/1251937">
        <time>
          <value>2015-03-27T20:42:27.445470Z</value>
          <uncertainty>1.22</uncertainty>
        </time>
        <latitude>
          <value>39.1692</value>
          <uncertainty>0.0898379768956</uncertainty>
        </latitude>
        <longitude>
          <value>-120.2406</value>
          <uncertainty>0.0235607298034</uncertainty>
        </longitude>
        <depth>
          <value>0.0</value>
        </depth>
        <quality>
          <associatedPhaseCount>5</associatedPhaseCount>
          <usedPhaseCount>5</usedPhaseCount>
          <associatedStationCount>4</associatedStationCount>
          <usedStationCount>4</usedStationCount>
          <standardError>0.1492</standardError>
          <azimuthalGap>257.88</azimuthalGap>
          <minimumDistance>0.097</minimumDistance>
          <maximumDistance>0.855</maximumDistance>
          <medianDistance>0.709</medianDistance>
        </quality>
        <evaluationMode>manual</evaluationMode>
        <evaluationStatus>reviewed</evaluationStatus>
        <creationInfo>
          <agencyID>NN</agencyID>
          <author>BRTT:tom</author>
          <creationTime>2015-03-27T21:34:04.681830Z</creationTime>
          <version>1251937</version>
        </creationInfo>
        <originUncertainty>
          <preferredDescription>horizontal uncertainty</preferredDescription>
          <horizontalUncertainty>12327.8</horizontalUncertainty>
          <minHorizontalUncertainty>2015.3</minHorizontalUncertainty>
          <maxHorizontalUncertainty>12327.8</maxHorizontalUncertainty>
          <azimuthMaxHorizontalUncertainty>6.99</azimuthMaxHorizontalUncertainty>
          <confidenceLevel>90.0</confidenceLevel>
        </originUncertainty>
        <arrival publicID="quakeml:www.seismo.unr.edu/Arrival/6567451">
          <pickID>quakeml:www.seismo.unr.edu/Pick/6567451</pickID>
          <phase>P</phase>
          <azimuth>66.5</azimuth>
          <distance>0.097</distance>
          <timeResidual>0.054</timeResidual>
          <timeWeight>1.0</timeWeight>
          <earthModelID>smi:www.seismo.unr.edu/VelocityModel/pickema2</earthModelID>
          <creationInfo>
            <agencyID>NN</agencyID>
            <creationTime>2015-03-27T21:33:42.416910Z</creationTime>
            <version>6567451</version>
          </creationInfo>
          <css:timedef>d</css:timedef>
        </arrival>
        <arrival publicID="quakeml:www.seismo.unr.edu/Arrival/6567473">
          <pickID>quakeml:www.seismo.unr.edu/Pick/6567473</pickID>
          <phase>S</phase>
          <azimuth>66.5</azimuth>
          <distance>0.097</distance>
          <timeResidual>-0.04</timeResidual>
          <timeWeight>1.0</timeWeight>
          <earthModelID>smi:www.seismo.unr.edu/VelocityModel/pickema2</earthModelID>
          <creationInfo>
            <agencyID>NN</agencyID>
            <creationTime>2015-03-27T21:33:42.998320Z</creationTime>
            <version>6567473</version>
          </creationInfo>
          <css:timedef>d</css:timedef>
        </arrival>
        <arrival publicID="quakeml:www.seismo.unr.edu/Arrival/6567457">
          <pickID>quakeml:www.seismo.unr.edu/Pick/6567457</pickID>
          <phase>P</phase>
          <azimuth>324.38</azimuth>
          <distance>0.564</distance>
          <timeResidual>-0.075</timeResidual>
          <timeWeight>1.0</timeWeight>
          <earthModelID>smi:www.seismo.unr.edu/VelocityModel/pickema2</earthModelID>
          <creationInfo>
            <agencyID>NN</agencyID>
            <creationTime>2015-03-27T21:33:43.016250Z</creationTime>
            <version>6567457</version>
          </creationInfo>
          <css:timedef>d</css:timedef>
        </arrival>
        <arrival publicID="quakeml:www.seismo.unr.edu/Arrival/6567452">
          <pickID>quakeml:www.seismo.unr.edu/Pick/6567452</pickID>
          <phase>P</phase>
          <azimuth>338.36</azimuth>
          <distance>0.854</distance>
          <timeResidual>0.218</timeResidual>
          <timeWeight>1.0</timeWeight>
          <earthModelID>smi:www.seismo.unr.edu/VelocityModel/pickema2</earthModelID>
          <creationInfo>
            <agencyID>NN</agencyID>
            <creationTime>2015-03-27T21:33:43.034220Z</creationTime>
            <version>6567452</version>
          </creationInfo>
          <css:timedef>d</css:timedef>
        </arrival>
        <arrival publicID="quakeml:www.seismo.unr.edu/Arrival/6567454">
          <pickID>quakeml:www.seismo.unr.edu/Pick/6567454</pickID>
          <phase>P</phase>
          <azimuth>325.42</azimuth>
          <distance>0.855</distance>
          <timeResidual>-0.232</timeResidual>
          <timeWeight>1.0</timeWeight>
          <earthModelID>smi:www.seismo.unr.edu/VelocityModel/pickema2</earthModelID>
          <creationInfo>
            <agencyID>NN</agencyID>
            <creationTime>2015-03-27T21:33:43.052160Z</creationTime>
            <version>6567454</version>
          </creationInfo>
          <css:timedef>d</css:timedef>
        </arrival>
        <css:etype>L</css:etype>
      </origin>
      <magnitude publicID="quakeml:www.seismo.unr.edu/Magnitude/ml/259547">
        <mag>
          <value>0.24</value>
          <uncertainty>0.0</uncertainty>
        </mag>
        <type>ml</type>
        <originID>quakeml:www.seismo.unr.edu/Origin/1251937</originID>
        <stationCount>1</stationCount>
        <evaluationMode>manual</evaluationMode>
        <evaluationStatus>reviewed</evaluationStatus>
        <creationInfo>
          <agencyID>NN</agencyID>
          <author>dbml:tom</author>
          <creationTime>2015-03-27T21:33:49.934000Z</creationTime>
          <version>259547</version>
        </creationInfo>
      </magnitude>
      <pick publicID="quakeml:www.seismo.unr.edu/Pick/6567451">
        <time>
          <value>2015-03-27T20:42:29.561610Z</value>
        </time>
        <waveformID stationCode="CTC" networkCode="NN" channelCode="HHZ" locationCode=""></waveformID>
        <phaseHint>P</phaseHint>
        <polarity>undecidable</polarity>
        <evaluationMode>manual</evaluationMode>
        <evaluationStatus>reviewed</evaluationStatus>
        <creationInfo>
          <agencyID>NN</agencyID>
          <author>dbp:tom:15086</author>
          <creationTime>2015-03-27T21:33:16.439760Z</creationTime>
          <version>6567451</version>
        </creationInfo>
      </pick>
      <pick publicID="quakeml:www.seismo.unr.edu/Pick/6567473">
        <time>
          <value>2015-03-27T20:42:31.021280Z</value>
        </time>
        <waveformID stationCode="CTC" networkCode="NN" channelCode="HHN" locationCode=""></waveformID>
        <phaseHint>S</phaseHint>
        <polarity>positive</polarity>
        <evaluationMode>manual</evaluationMode>
        <evaluationStatus>reviewed</evaluationStatus>
        <creationInfo>
          <agencyID>NN</agencyID>
          <author>dbp:tom:15086</author>
          <creationTime>2015-03-27T21:25:35.795040Z</creationTime>
          <version>6567473</version>
        </creationInfo>
      </pick>
      <pick publicID="quakeml:www.seismo.unr.edu/Pick/6567457">
        <time>
          <value>2015-03-27T20:42:38.310470Z</value>
        </time>
        <waveformID stationCode="SBT" networkCode="NN" channelCode="EHZ" locationCode=""></waveformID>
        <phaseHint>P</phaseHint>
        <polarity>positive</polarity>
        <evaluationMode>manual</evaluationMode>
        <evaluationStatus>reviewed</evaluationStatus>
        <creationInfo>
          <agencyID>NN</agencyID>
          <author>dbp:tom:15086</author>
          <creationTime>2015-03-27T21:33:00.632550Z</creationTime>
          <version>6567457</version>
        </creationInfo>
      </pick>
      <pick publicID="quakeml:www.seismo.unr.edu/Pick/6567452">
        <time>
          <value>2015-03-27T20:42:44.090000Z</value>
        </time>
        <waveformID stationCode="GZY" networkCode="NN" channelCode="EHZ" locationCode=""></waveformID>
        <phaseHint>P</phaseHint>
        <evaluationMode>automatic</evaluationMode>
        <evaluationStatus>preliminary</evaluationStatus>
        <creationInfo>
          <agencyID>NN</agencyID>
          <author>orbassoc</author>
          <creationTime>2015-03-27T20:42:57.729380Z</creationTime>
          <version>6567452</version>
        </creationInfo>
      </pick>
      <pick publicID="quakeml:www.seismo.unr.edu/Pick/6567454">
        <time>
          <value>2015-03-27T20:42:43.611600Z</value>
        </time>
        <waveformID stationCode="LVO" networkCode="NN" channelCode="EHZ" locationCode=""></waveformID>
        <phaseHint>P</phaseHint>
        <polarity>undecidable</polarity>
        <evaluationMode>manual</evaluationMode>
        <evaluationStatus>reviewed</evaluationStatus>
        <creationInfo>
          <agencyID>NN</agencyID>
          <author>dbp:tom:15086</author>
          <creationTime>2015-03-27T21:32:56.965200Z</creationTime>
          <version>6567454</version>
        </creationInfo>
      </pick>
    </event>
  </eventParameters>
</q:quakeml>
