<?xml version='1.0' encoding='utf-8'?>
<q:quakeml xmlns:q="http://quakeml.org/xmlns/quakeml/1.2" xmlns:catalog="http://anss.org/xmlns/catalog/0.1" xmlns:css="http://www.seismo.unr.edu/schema/css3.0" xmlns="http://quakeml.org/xmlns/bed/1.2">
  <eventParameters publicID="quakeml:www.seismo.unr.edu/Catalog/488363">
    <creationInfo>
      <agencyID>NN</agencyID>
      <creationTime>2015-03-27T21:33:52.529842Z</creationTime>
      <version>488363</version>
    </creationInfo>
    <event publicID="quakeml:www.seismo.unr.edu/Events/main.php?evid=488363" catalog:eventid="00488363" catalog:dataid="nn00488363" catalog:eventsource="nn" catalog:datasource="nn">
      <preferredOriginID>quakeml:www.seismo.unr.edu/Origin/1251935</preferredOriginID>
      <preferredMagnitudeID>quakeml:www.seismo.unr.edu/Magnitude/ml/259546</preferredMagnitudeID>
      <type>earthquake</type>
      <description>
        <text>8.2 km S of Truckee, CA</text>
        <type>nearest cities</type>
      </description>
      <creationInfo>
        <agencyID>NN</agencyID>
        <author>BRTT:tom</author>
        <creationTime>2015-03-27T21:31:35.281150Z</creationTime>
        <version>488363</version>
      </creationInfo>
      <origin publicID="quakeml:www.seismo.unr.edu/Origin/1251935">
        <time>
          <value>2015-03-27T20:42:30.162100Z</value>
          <uncertainty>0.7</uncertainty>
        </time>
        <latitude>
          <value>39.25</value>
          <uncertainty>0.0227850567104</uncertainty>
        </latitude>
        <longitude>
          <value>-120.2066</value>
          <uncertainty>0.0249188424727</uncertainty>
        </longitude>
        <depth>
          <value>9812.0</value>
          <uncertainty>4838.6</uncertainty>
        </depth>
        <quality>
          <associatedPhaseCount>7</associatedPhaseCount>
          <usedPhaseCount>5</usedPhaseCount>
          <associatedStationCount>5</associatedStationCount>
          <usedStationCount>4</usedStationCount>
          <standardError>0.1161</standardError>
          <azimuthalGap>150.58</azimuthalGap>
          <minimumDistance>0.076</minimumDistance>
          <maximumDistance>0.203</maximumDistance>
          <medianDistance>0.139</medianDistance>
        </quality>
        <evaluationMode>manual</evaluationMode>
        <evaluationStatus>reviewed</evaluationStatus>
        <creationInfo>
          <agencyID>NN</agencyID>
          <author>BRTT:tom</author>
          <creationTime>2015-03-27T21:31:35.281150Z</creationTime>
          <version>1251935</version>
        </creationInfo>
        <originUncertainty>
          <preferredDescription>horizontal uncertainty</preferredDescription>
          <horizontalUncertainty>3618.7</horizontalUncertainty>
          <minHorizontalUncertainty>1830.2</minHorizontalUncertainty>
          <maxHorizontalUncertainty>3618.7</maxHorizontalUncertainty>
          <azimuthMaxHorizontalUncertainty>37.17</azimuthMaxHorizontalUncertainty>
          <confidenceLevel>90.0</confidenceLevel>
        </originUncertainty>
        <arrival publicID="quakeml:www.seismo.unr.edu/Arrival/6567460">
          <pickID>quakeml:www.seismo.unr.edu/Pick/6567460</pickID>
          <phase>S</phase>
          <azimuth>124.08</azimuth>
          <distance>0.076</distance>
          <timeResidual>-0.053</timeResidual>
          <timeWeight>1.0</timeWeight>
          <earthModelID>smi:www.seismo.unr.edu/VelocityModel/pickema2</earthModelID>
          <creationInfo>
            <agencyID>NN</agencyID>
            <creationTime>2015-03-27T21:31:25.141510Z</creationTime>
            <version>6567460</version>
          </creationInfo>
          <css:timedef>d</css:timedef>
        </arrival>
        <arrival publicID="quakeml:www.seismo.unr.edu/Arrival/6567461">
          <pickID>quakeml:www.seismo.unr.edu/Pick/6567461</pickID>
          <phase>P</phase>
          <azimuth>319.13</azimuth>
          <distance>0.135</distance>
          <timeResidual>-0.143</timeResidual>
          <timeWeight>1.0</timeWeight>
          <earthModelID>smi:www.seismo.unr.edu/VelocityModel/pickema2</earthModelID>
          <creationInfo>
            <agencyID>NN</agencyID>
            <creationTime>2015-03-27T21:31:25.159480Z</creationTime>
            <version>6567461</version>
          </creationInfo>
          <css:timedef>d</css:timedef>
        </arrival>
        <arrival publicID="quakeml:www.seismo.unr.edu/Arrival/6567462">
          <pickID>quakeml:www.seismo.unr.edu/Pick/6567462</pickID>
          <phase>S</phase>
          <azimuth>319.13</azimuth>
          <distance>0.135</distance>
          <timeResidual>0.104</timeResidual>
          <timeWeight>1.0</timeWeight>
          <earthModelID>smi:www.seismo.unr.edu/VelocityModel/pickema2</earthModelID>
          <creationInfo>
            <agencyID>NN</agencyID>
            <creationTime>2015-03-27T21:31:25.177470Z</creationTime>
            <version>6567462</version>
          </creationInfo>
          <css:timedef>d</css:timedef>
        </arrival>
        <arrival publicID="quakeml:www.seismo.unr.edu/Arrival/6567464">
          <pickID>quakeml:www.seismo.unr.edu/Pick/6567464</pickID>
          <phase>S</phase>
          <azimuth>71.95</azimuth>
          <distance>0.139</distance>
          <timeResidual>0.044</timeResidual>
          <timeWeight>1.0</timeWeight>
          <earthModelID>smi:www.seismo.unr.edu/VelocityModel/pickema2</earthModelID>
          <creationInfo>
            <agencyID>NN</agencyID>
            <creationTime>2015-03-27T21:31:25.195490Z</creationTime>
            <version>6567464</version>
          </creationInfo>
          <css:timedef>d</css:timedef>
        </arrival>
        <arrival publicID="quakeml:www.seismo.unr.edu/Arrival/6567453">
          <pickID>quakeml:www.seismo.unr.edu/Pick/6567453</pickID>
          <phase>P</phase>
          <azimuth>340.16</azimuth>
          <distance>0.196</distance>
          <timeResidual>0.688</timeResidual>
          <timeWeight>0.0</timeWeight>
          <earthModelID>smi:www.seismo.unr.edu/VelocityModel/pickema2</earthModelID>
          <creationInfo>
            <agencyID>NN</agencyID>
            <creationTime>2015-03-27T21:31:25.213500Z</creationTime>
            <version>6567453</version>
          </creationInfo>
          <css:timedef>n</css:timedef>
        </arrival>
        <arrival publicID="quakeml:www.seismo.unr.edu/Arrival/6567471">
          <pickID>quakeml:www.seismo.unr.edu/Pick/6567471</pickID>
          <phase>P</phase>
          <azimuth>168.55</azimuth>
          <distance>0.203</distance>
          <timeResidual>0.177</timeResidual>
          <timeWeight>1.0</timeWeight>
          <earthModelID>smi:www.seismo.unr.edu/VelocityModel/pickema2</earthModelID>
          <creationInfo>
            <agencyID>NN</agencyID>
            <creationTime>2015-03-27T21:31:25.231440Z</creationTime>
            <version>6567471</version>
          </creationInfo>
          <css:timedef>d</css:timedef>
        </arrival>
        <arrival publicID="quakeml:www.seismo.unr.edu/Arrival/6567466">
          <pickID>quakeml:www.seismo.unr.edu/Pick/6567466</pickID>
          <phase>S</phase>
          <azimuth>168.55</azimuth>
          <distance>0.203</distance>
          <timeResidual>0.783</timeResidual>
          <timeWeight>0.0</timeWeight>
          <earthModelID>smi:www.seismo.unr.edu/VelocityModel/pickema2</earthModelID>
          <creationInfo>
            <agencyID>NN</agencyID>
            <creationTime>2015-03-27T21:31:25.279390Z</creationTime>
            <version>6567466</version>
          </creationInfo>
          <css:timedef>n</css:timedef>
        </arrival>
        <css:etype>L</css:etype>
      </origin>
      <magnitude publicID="quakeml:www.seismo.unr.edu/Magnitude/ml/259546">
        <mag>
          <value>0.59</value>
          <uncertainty>0.52</uncertainty>
        </mag>
        <type>ml</type>
        <originID>quakeml:www.seismo.unr.edu/Origin/1251935</originID>
        <stationCount>3</stationCount>
        <evaluationMode>manual</evaluationMode>
        <evaluationStatus>reviewed</evaluationStatus>
        <creationInfo>
          <agencyID>NN</agencyID>
          <author>dbml:tom</author>
          <creationTime>2015-03-27T21:31:30.907720Z</creationTime>
          <version>259546</version>
        </creationInfo>
      </magnitude>
      <pick publicID="quakeml:www.seismo.unr.edu/Pick/6567460">
        <time>
          <value>2015-03-27T20:42:34.549990Z</value>
        </time>
        <waveformID stationCode="CTC" networkCode="NN" channelCode="HHN" locationCode=""></waveformID>
        <phaseHint>S</phaseHint>
        <polarity>positive</polarity>
        <evaluationMode>manual</evaluationMode>
        <evaluationStatus>reviewed</evaluationStatus>
        <creationInfo>
          <agencyID>NN</agencyID>
          <author>dbp:tom:15086</author>
          <creationTime>2015-03-27T21:12:31.847500Z</creationTime>
          <version>6567460</version>
        </creationInfo>
      </pick>
      <pick publicID="quakeml:www.seismo.unr.edu/Pick/6567461">
        <time>
          <value>2015-03-27T20:42:33.376390Z</value>
        </time>
        <waveformID stationCode="DON" networkCode="NN" channelCode="EHZ" locationCode=""></waveformID>
        <phaseHint>P</phaseHint>
        <polarity>negative</polarity>
        <evaluationMode>manual</evaluationMode>
        <evaluationStatus>reviewed</evaluationStatus>
        <creationInfo>
          <agencyID>NN</agencyID>
          <author>dbp:tom:15086</author>
          <creationTime>2015-03-27T21:13:47.233600Z</creationTime>
          <version>6567461</version>
        </creationInfo>
      </pick>
      <pick publicID="quakeml:www.seismo.unr.edu/Pick/6567462">
        <time>
          <value>2015-03-27T20:42:36.116180Z</value>
        </time>
        <waveformID stationCode="DON" networkCode="NN" channelCode="EHN" locationCode=""></waveformID>
        <phaseHint>S</phaseHint>
        <polarity>positive</polarity>
        <evaluationMode>manual</evaluationMode>
        <evaluationStatus>reviewed</evaluationStatus>
        <creationInfo>
          <agencyID>NN</agencyID>
          <author>dbp:tom:15086</author>
          <creationTime>2015-03-27T21:13:14.597760Z</creationTime>
          <version>6567462</version>
        </creationInfo>
      </pick>
      <pick publicID="quakeml:www.seismo.unr.edu/Pick/6567464">
        <time>
          <value>2015-03-27T20:42:36.247380Z</value>
        </time>
        <waveformID stationCode="MPK" networkCode="NN" channelCode="HHN" locationCode=""></waveformID>
        <phaseHint>S</phaseHint>
        <polarity>negative</polarity>
        <evaluationMode>manual</evaluationMode>
        <evaluationStatus>reviewed</evaluationStatus>
        <creationInfo>
          <agencyID>NN</agencyID>
          <author>dbp:tom:15086</author>
          <creationTime>2015-03-27T21:14:02.849230Z</creationTime>
          <version>6567464</version>
        </creationInfo>
      </pick>
      <pick publicID="quakeml:www.seismo.unr.edu/Pick/6567453">
        <time>
          <value>2015-03-27T20:42:35.180000Z</value>
        </time>
        <waveformID stationCode="IND" networkCode="NN" channelCode="EHZ" locationCode=""></waveformID>
        <phaseHint>P</phaseHint>
        <evaluationMode>automatic</evaluationMode>
        <evaluationStatus>preliminary</evaluationStatus>
        <creationInfo>
          <agencyID>NN</agencyID>
          <author>orbassoc</author>
          <creationTime>2015-03-27T20:42:57.729380Z</creationTime>
          <version>6567453</version>
        </creationInfo>
      </pick>
      <pick publicID="quakeml:www.seismo.unr.edu/Pick/6567471">
        <time>
          <value>2015-03-27T20:42:34.760270Z</value>
        </time>
        <waveformID stationCode="RUB" networkCode="NN" channelCode="HHZ" locationCode=""></waveformID>
        <phaseHint>P</phaseHint>
        <polarity>positive</polarity>
        <evaluationMode>manual</evaluationMode>
        <evaluationStatus>reviewed</evaluationStatus>
        <creationInfo>
          <agencyID>NN</agencyID>
          <author>dbp:tom:15086</author>
          <creationTime>2015-03-27T21:24:51.334390Z</creationTime>
          <version>6567471</version>
        </creationInfo>
      </pick>
      <pick publicID="quakeml:www.seismo.unr.edu/Pick/6567466">
        <time>
          <value>2015-03-27T20:42:38.637930Z</value>
        </time>
        <waveformID stationCode="RUB" networkCode="NN" channelCode="HHN" locationCode=""></waveformID>
        <phaseHint>S</phaseHint>
        <polarity>positive</polarity>
        <evaluationMode>manual</evaluationMode>
        <evaluationStatus>reviewed</evaluationStatus>
        <creationInfo>
          <agencyID>NN</agencyID>
          <author>dbp:tom:15086</author>
          <creationTime>2015-03-27T21:22:08.232560Z</creationTime>
          <version>6567466</version>
        </creationInfo>
      </pick>
    </event>
  </eventParameters>
</q:quakeml>
